[
  {
    "OBJECT_NAME": "STARLINK-31918",
    "OBJECT_ID": "24111X",
    "EPOCH": "2025-11-11T04:33:06.411456",
    "MEAN_MOTION": 15.30192039,
    "ECCENTRICITY": 0.000113,
    "INCLINATION": 53.1609,
    "RA_OF_ASC_NODE": 265.8299,
    "ARG_OF_PERICENTER": 90.2987,
    "MEAN_ANOMALY": 269.8143,
    "EPHEMERIS_TYPE": 0,
    "CLASSIFICATION_TYPE": "U",
    "NORAD_CAT_ID": 60037,
    "ELEMENT_SET_NO": 999,
    "REV_AT_EPOCH": 8082,
    "BSTAR": 6.094000000000001e-05,
    "MEAN_MOTION_DOT": 1.446e-05,
    "MEAN_MOTION_DDOT": 0.0,
    "TLE_LINE1": "1 60037U 24111X   25315.18965754  .00001446  00000+0  60940-4 0  9993",
    "TLE_LINE2": "2 60037  53.1609 265.8299 0001130  90.2987 269.8143 15.30192039 80827",
    "COMMENT": "Grouped by shell and plane from TLE"
  },
  {
    "OBJECT_NAME": "STARLINK-31811",
    "OBJECT_ID": "24112P",
    "EPOCH": "2025-11-11T06:52:04.435680",
    "MEAN_MOTION": 15.30215992,
    "ECCENTRICITY": 0.0001336,
    "INCLINATION": 53.1616,
    "RA_OF_ASC_NODE": 268.3088,
    "ARG_OF_PERICENTER": 103.0389,
    "MEAN_ANOMALY": 257.0761,
    "EPHEMERIS_TYPE": 0,
    "CLASSIFICATION_TYPE": "U",
    "NORAD_CAT_ID": 60051,
    "ELEMENT_SET_NO": 999,
    "REV_AT_EPOCH": 8046,
    "BSTAR": 0.00017347,
    "MEAN_MOTION_DOT": 4.784e-05,
    "MEAN_MOTION_DDOT": 0.0,
    "TLE_LINE1": "1 60051U 24112P   25315.28616245  .00004784  00000+0  17347-3 0  9999",
    "TLE_LINE2": "2 60051  53.1616 268.3088 0001336 103.0389 257.0761 15.30215992 80461",
    "COMMENT": "Grouped by shell and plane from TLE"
  },
  {
    "OBJECT_NAME": "STARLINK-31775",
    "OBJECT_ID": "24112Q",
    "EPOCH": "2025-11-11T06:38:25.291968",
    "MEAN_MOTION": 15.30205494,
    "ECCENTRICITY": 0.000112,
    "INCLINATION": 53.1605,
    "RA_OF_ASC_NODE": 268.2519,
    "ARG_OF_PERICENTER": 99.0462,
    "MEAN_ANOMALY": 261.0666,
    "EPHEMERIS_TYPE": 0,
    "CLASSIFICATION_TYPE": "U",
    "NORAD_CAT_ID": 60052,
    "ELEMENT_SET_NO": 999,
    "REV_AT_EPOCH": 8046,
    "BSTAR": 0.00016036000000000002,
    "MEAN_MOTION_DOT": 4.394e-05,
    "MEAN_MOTION_DDOT": 0.0,
    "TLE_LINE1": "1 60052U 24112Q   25315.27668162  .00004394  00000+0  16036-3 0  9995",
    "TLE_LINE2": "2 60052  53.1605 268.2519 0001120  99.0462 261.0666 15.30205494 80460",
    "COMMENT": "Grouped by shell and plane from TLE"
  },
  {
    "OBJECT_NAME": "STARLINK-31793",
    "OBJECT_ID": "24112R",
    "EPOCH": "2025-11-11T06:47:32.203104",
    "MEAN_MOTION": 15.30198018,
    "ECCENTRICITY": 0.0001461,
    "INCLINATION": 53.1605,
    "RA_OF_ASC_NODE": 268.2926,
    "ARG_OF_PERICENTER": 88.1941,
    "MEAN_ANOMALY": 271.9227,
    "EPHEMERIS_TYPE": 0,
    "CLASSIFICATION_TYPE": "U",
    "NORAD_CAT_ID": 60053,
    "ELEMENT_SET_NO": 999,
    "REV_AT_EPOCH": 8046,
    "BSTAR": 0.00010190000000000001,
    "MEAN_MOTION_DOT": 2.66e-05,
    "MEAN_MOTION_DDOT": 0.0,
    "TLE_LINE1": "1 60053U 24112R   25315.28301161  .00002660  00000+0  10190-3 0  9999",
    "TLE_LINE2": "2 60053  53.1605 268.2926 0001461  88.1941 271.9227 15.30198018 80468",
    "COMMENT": "Grouped by shell and plane from TLE"
  },
  {
    "OBJECT_NAME": "STARLINK-31735",
    "OBJECT_ID": "24112S",
    "EPOCH": "2025-11-11T06:29:18.070656",
    "MEAN_MOTION": 15.30193279,
    "ECCENTRICITY": 0.0001417,
    "INCLINATION": 53.1619,
    "RA_OF_ASC_NODE": 268.2122,
    "ARG_OF_PERICENTER": 101.0569,
    "MEAN_ANOMALY": 259.0591,
    "EPHEMERIS_TYPE": 0,
    "CLASSIFICATION_TYPE": "U",
    "NORAD_CAT_ID": 60054,
    "ELEMENT_SET_NO": 999,
    "REV_AT_EPOCH": 8046,
    "BSTAR": 7.8621e-05,
    "MEAN_MOTION_DOT": 1.969e-05,
    "MEAN_MOTION_DDOT": 0.0,
    "TLE_LINE1": "1 60054U 24112S   25315.27034804  .00001969  00000+0  78621-4 0  9991",
    "TLE_LINE2": "2 60054  53.1619 268.2122 0001417 101.0569 259.0591 15.30193279 80469",
    "COMMENT": "Grouped by shell and plane from TLE"
  },
  {
    "OBJECT_NAME": "STARLINK-31788",
    "OBJECT_ID": "24112T",
    "EPOCH": "2025-11-11T06:24:44.355456",
    "MEAN_MOTION": 15.3019684,
    "ECCENTRICITY": 0.0001219,
    "INCLINATION": 53.1615,
    "RA_OF_ASC_NODE": 268.1919,
    "ARG_OF_PERICENTER": 98.5061,
    "MEAN_ANOMALY": 261.6078,
    "EPHEMERIS_TYPE": 0,
    "CLASSIFICATION_TYPE": "U",
    "NORAD_CAT_ID": 60055,
    "ELEMENT_SET_NO": 999,
    "REV_AT_EPOCH": 8046,
    "BSTAR": 5.812500000000001e-05,
    "MEAN_MOTION_DOT": 1.363e-05,
    "MEAN_MOTION_DDOT": 0.0,
    "TLE_LINE1": "1 60055U 24112T   25315.26718004  .00001363  00000+0  58125-4 0  9997",
    "TLE_LINE2": "2 60055  53.1615 268.1919 0001219  98.5061 261.6078 15.30196840 80462",
    "COMMENT": "Grouped by shell and plane from TLE"
  },
  {
    "OBJECT_NAME": "STARLINK-31825",
    "OBJECT_ID": "24112U",
    "EPOCH": "2025-11-11T06:33:51.239808",
    "MEAN_MOTION": 15.30215303,
    "ECCENTRICITY": 0.0001498,
    "INCLINATION": 53.1623,
    "RA_OF_ASC_NODE": 268.2324,
    "ARG_OF_PERICENTER": 116.8656,
    "MEAN_ANOMALY": 243.2498,
    "EPHEMERIS_TYPE": 0,
    "CLASSIFICATION_TYPE": "U",
    "NORAD_CAT_ID": 60056,
    "ELEMENT_SET_NO": 999,
    "REV_AT_EPOCH": 8046,
    "BSTAR": 0.0,
    "MEAN_MOTION_DOT": -2.949e-05,
    "MEAN_MOTION_DDOT": 0.0,
    "TLE_LINE1": "1 60056U 24112U   25315.27350972 -.00002949  00000+0 -87412-4 0  9999",
    "TLE_LINE2": "2 60056  53.1623 268.2324 0001498 116.8656 243.2498 15.30215303 80464",
    "COMMENT": "Grouped by shell and plane from TLE"
  },
  {
    "OBJECT_NAME": "STARLINK-31437",
    "OBJECT_ID": "24112V",
    "EPOCH": "2025-11-11T06:42:58.950144",
    "MEAN_MOTION": 15.30199062,
    "ECCENTRICITY": 0.0001348,
    "INCLINATION": 53.1602,
    "RA_OF_ASC_NODE": 268.2711,
    "ARG_OF_PERICENTER": 102.1713,
    "MEAN_ANOMALY": 257.9439,
    "EPHEMERIS_TYPE": 0,
    "CLASSIFICATION_TYPE": "U",
    "NORAD_CAT_ID": 60057,
    "ELEMENT_SET_NO": 999,
    "REV_AT_EPOCH": 8046,
    "BSTAR": 0.00011948,
    "MEAN_MOTION_DOT": 3.181e-05,
    "MEAN_MOTION_DDOT": 0.0,
    "TLE_LINE1": "1 60057U 24112V   25315.27984896  .00003181  00000+0  11948-3 0  9995",
    "TLE_LINE2": "2 60057  53.1602 268.2711 0001348 102.1713 257.9439 15.30199062 80468",
    "COMMENT": "Grouped by shell and plane from TLE"
  },
  {
    "OBJECT_NAME": "STARLINK-31745",
    "OBJECT_ID": "24136A",
    "EPOCH": "2025-11-11T07:07:58.077408",
    "MEAN_MOTION": 15.30201472,
    "ECCENTRICITY": 0.0001113,
    "INCLINATION": 53.1608,
    "RA_OF_ASC_NODE": 265.9093,
    "ARG_OF_PERICENTER": 90.6317,
    "MEAN_ANOMALY": 269.4811,
    "EPHEMERIS_TYPE": 0,
    "CLASSIFICATION_TYPE": "U",
    "NORAD_CAT_ID": 60329,
    "ELEMENT_SET_NO": 999,
    "REV_AT_EPOCH": 7274,
    "BSTAR": 7.915600000000001e-05,
    "MEAN_MOTION_DOT": 1.986e-05,
    "MEAN_MOTION_DDOT": 0.0,
    "TLE_LINE1": "1 60329U 24136A   25315.29719997  .00001986  00000+0  79156-4 0  9990",
    "TLE_LINE2": "2 60329  53.1608 265.9093 0001113  90.6317 269.4811 15.30201472 72747",
    "COMMENT": "Grouped by shell and plane from TLE"
  },
  {
    "OBJECT_NAME": "STARLINK-32153",
    "OBJECT_ID": "24136B",
    "EPOCH": "2025-11-11T07:06:26.781120",
    "MEAN_MOTION": 15.30201613,
    "ECCENTRICITY": 0.000118,
    "INCLINATION": 53.1611,
    "RA_OF_ASC_NODE": 265.9037,
    "ARG_OF_PERICENTER": 88.7703,
    "MEAN_ANOMALY": 271.3433,
    "EPHEMERIS_TYPE": 0,
    "CLASSIFICATION_TYPE": "U",
    "NORAD_CAT_ID": 60330,
    "ELEMENT_SET_NO": 999,
    "REV_AT_EPOCH": 7153,
    "BSTAR": 7.9694e-05,
    "MEAN_MOTION_DOT": 2.002e-05,
    "MEAN_MOTION_DDOT": 0.0,
    "TLE_LINE1": "1 60330U 24136B   25315.29614330  .00002002  00000+0  79694-4 0  9994",
    "TLE_LINE2": "2 60330  53.1611 265.9037 0001180  88.7703 271.3433 15.30201613 71537",
    "COMMENT": "Grouped by shell and plane from TLE"
  },
  {
    "OBJECT_NAME": "STARLINK-32171",
    "OBJECT_ID": "24136D",
    "EPOCH": "2025-11-11T05:55:01.656480",
    "MEAN_MOTION": 15.30188373,
    "ECCENTRICITY": 0.0001113,
    "INCLINATION": 53.1614,
    "RA_OF_ASC_NODE": 265.6064,
    "ARG_OF_PERICENTER": 101.3214,
    "MEAN_ANOMALY": 258.7912,
    "EPHEMERIS_TYPE": 0,
    "CLASSIFICATION_TYPE": "U",
    "NORAD_CAT_ID": 60332,
    "ELEMENT_SET_NO": 999,
    "REV_AT_EPOCH": 7153,
    "BSTAR": 2.8229e-05,
    "MEAN_MOTION_DOT": 4.77e-06,
    "MEAN_MOTION_DDOT": 0.0,
    "TLE_LINE1": "1 60332U 24136D   25315.24654695  .00000477  00000+0  28229-4 0  9991",
    "TLE_LINE2": "2 60332  53.1614 265.6064 0001113 101.3214 258.7912 15.30188373 71532",
    "COMMENT": "Grouped by shell and plane from TLE"
  },
  {
    "OBJECT_NAME": "STARLINK-32133",
    "OBJECT_ID": "24136E",
    "EPOCH": "2025-11-11T05:23:16.791360",
    "MEAN_MOTION": 15.30195579,
    "ECCENTRICITY": 0.0001063,
    "INCLINATION": 53.161,
    "RA_OF_ASC_NODE": 266.1691,
    "ARG_OF_PERICENTER": 85.4205,
    "MEAN_ANOMALY": 274.6917,
    "EPHEMERIS_TYPE": 0,
    "CLASSIFICATION_TYPE": "U",
    "NORAD_CAT_ID": 60333,
    "ELEMENT_SET_NO": 999,
    "REV_AT_EPOCH": 7152,
    "BSTAR": 0.00010669,
    "MEAN_MOTION_DOT": 2.802e-05,
    "MEAN_MOTION_DDOT": 0.0,
    "TLE_LINE1": "1 60333U 24136E   25315.22449990  .00002802  00000+0  10669-3 0  9992",
    "TLE_LINE2": "2 60333  53.1610 266.1691 0001063  85.4205 274.6917 15.30195579 71524",
    "COMMENT": "Grouped by shell and plane from TLE"
  },
  {
    "OBJECT_NAME": "STARLINK-32132",
    "OBJECT_ID": "24136F",
    "EPOCH": "2025-11-11T06:48:13.188672",
    "MEAN_MOTION": 15.3020455,
    "ECCENTRICITY": 0.0001262,
    "INCLINATION": 53.1605,
    "RA_OF_ASC_NODE": 265.8196,
    "ARG_OF_PERICENTER": 70.5057,
    "MEAN_ANOMALY": 289.608,
    "EPHEMERIS_TYPE": 0,
    "CLASSIFICATION_TYPE": "U",
    "NORAD_CAT_ID": 60334,
    "ELEMENT_SET_NO": 999,
    "REV_AT_EPOCH": 7153,
    "BSTAR": 0.0,
    "MEAN_MOTION_DOT": -2.468e-05,
    "MEAN_MOTION_DDOT": 0.0,
    "TLE_LINE1": "1 60334U 24136F   25315.28348598 -.00002468  00000+0 -71214-4 0  9995",
    "TLE_LINE2": "2 60334  53.1605 265.8196 0001262  70.5057 289.6080 15.30204550 71534",
    "COMMENT": "Grouped by shell and plane from TLE"
  }
]